[{"OBJECT_NAME":"PROBA-1","OBJECT_ID":"2001-049B","EPOCH":"2026-04-26T19:46:26.535072","MEAN_MOTION":15.07299686,"ECCENTRICITY":0.0053901,"INCLINATION":97.9623,"RA_OF_ASC_NODE":123.5671,"ARG_OF_PERICENTER":297.4289,"MEAN_ANOMALY":62.1461,"EPHEMERIS_TYPE":0,"CLASSIFICATION_TYPE":"U","NORAD_CAT_ID":26958,"ELEMENT_SET_NO":999,"REV_AT_EPOCH":33588,"BSTAR":0.00018387,"MEAN_MOTION_DOT":2.795e-5,"MEAN_MOTION_DDOT":0},{"OBJECT_NAME":"CUTE-1 (CO-55)","OBJECT_ID":"2003-031E","EPOCH":"2026-04-26T18:08:00.880800","MEAN_MOTION":14.24302739,"ECCENTRICITY":0.0009078,"INCLINATION":98.6757,"RA_OF_ASC_NODE":125.9591,"ARG_OF_PERICENTER":342.277,"MEAN_ANOMALY":17.8091,"EPHEMERIS_TYPE":0,"CLASSIFICATION_TYPE":"U","NORAD_CAT_ID":27844,"ELEMENT_SET_NO":999,"REV_AT_EPOCH":18435,"BSTAR":0.00016208,"MEAN_MOTION_DOT":3.31e-6,"MEAN_MOTION_DDOT":0},{"OBJECT_NAME":"CUBESAT XI-IV (CO-57)","OBJECT_ID":"2003-031J","EPOCH":"2026-04-26T12:10:44.317632","MEAN_MOTION":14.23592208,"ECCENTRICITY":0.0009403,"INCLINATION":98.6789,"RA_OF_ASC_NODE":125.4683,"ARG_OF_PERICENTER":1.8754,"MEAN_ANOMALY":358.2459,"EPHEMERIS_TYPE":0,"CLASSIFICATION_TYPE":"U","NORAD_CAT_ID":27848,"ELEMENT_SET_NO":999,"REV_AT_EPOCH":18402,"BSTAR":0.00013913641,"MEAN_MOTION_DOT":2.73e-6,"MEAN_MOTION_DDOT":0},{"OBJECT_NAME":"APRIZESAT 4","OBJECT_ID":"2009-041D","EPOCH":"2026-04-26T17:42:33.092064","MEAN_MOTION":14.83799987,"ECCENTRICITY":0.0044466,"INCLINATION":98.1423,"RA_OF_ASC_NODE":191.0335,"ARG_OF_PERICENTER":127.5357,"MEAN_ANOMALY":232.991,"EPHEMERIS_TYPE":0,"CLASSIFICATION_TYPE":"U","NORAD_CAT_ID":35684,"ELEMENT_SET_NO":999,"REV_AT_EPOCH":90373,"BSTAR":0.00012055,"MEAN_MOTION_DOT":9.57e-6,"MEAN_MOTION_DDOT":0},{"OBJECT_NAME":"APRIZESAT 3","OBJECT_ID":"2009-041F","EPOCH":"2026-04-26T16:02:54.167136","MEAN_MOTION":14.96060223,"ECCENTRICITY":0.0060924,"INCLINATION":98.1994,"RA_OF_ASC_NODE":267.4506,"ARG_OF_PERICENTER":236.6528,"MEAN_ANOMALY":122.8851,"EPHEMERIS_TYPE":0,"CLASSIFICATION_TYPE":"U","NORAD_CAT_ID":35686,"ELEMENT_SET_NO":999,"REV_AT_EPOCH":90867,"BSTAR":0.00012708,"MEAN_MOTION_DOT":1.412e-5,"MEAN_MOTION_DDOT":0},{"OBJECT_NAME":"PROBA-2","OBJECT_ID":"2009-059B","EPOCH":"2026-04-26T19:06:13.639680","MEAN_MOTION":14.54839891,"ECCENTRICITY":0.0014564,"INCLINATION":98.2451,"RA_OF_ASC_NODE":300.862,"ARG_OF_PERICENTER":80.7768,"MEAN_ANOMALY":279.5076,"EPHEMERIS_TYPE":0,"CLASSIFICATION_TYPE":"U","NORAD_CAT_ID":36037,"ELEMENT_SET_NO":999,"REV_AT_EPOCH":87405,"BSTAR":6.3124e-5,"MEAN_MOTION_DOT":2.26e-6,"MEAN_MOTION_DDOT":0},{"OBJECT_NAME":"APRIZESAT 5","OBJECT_ID":"2011-044E","EPOCH":"2026-04-26T19:05:17.502144","MEAN_MOTION":14.80971114,"ECCENTRICITY":0.0052531,"INCLINATION":98.2436,"RA_OF_ASC_NODE":48.3909,"ARG_OF_PERICENTER":166.7816,"MEAN_ANOMALY":193.4786,"EPHEMERIS_TYPE":0,"CLASSIFICATION_TYPE":"U","NORAD_CAT_ID":37792,"ELEMENT_SET_NO":999,"REV_AT_EPOCH":79118,"BSTAR":0.00012806,"MEAN_MOTION_DOT":9.56e-6,"MEAN_MOTION_DDOT":0},{"OBJECT_NAME":"APRIZESAT 6","OBJECT_ID":"2011-044F","EPOCH":"2026-04-26T17:20:07.115712","MEAN_MOTION":14.76844907,"ECCENTRICITY":0.0041852,"INCLINATION":98.239,"RA_OF_ASC_NODE":26.1666,"ARG_OF_PERICENTER":250.1475,"MEAN_ANOMALY":163.781,"EPHEMERIS_TYPE":0,"CLASSIFICATION_TYPE":"U","NORAD_CAT_ID":37793,"ELEMENT_SET_NO":999,"REV_AT_EPOCH":78955,"BSTAR":0.00011237,"MEAN_MOTION_DOT":7.43e-6,"MEAN_MOTION_DDOT":0},{"OBJECT_NAME":"PROBA-V","OBJECT_ID":"2013-021A","EPOCH":"2026-04-26T19:27:56.910240","MEAN_MOTION":14.23585717,"ECCENTRICITY":0.0002995,"INCLINATION":98.3561,"RA_OF_ASC_NODE":97.9631,"ARG_OF_PERICENTER":289.9467,"MEAN_ANOMALY":70.139,"EPHEMERIS_TYPE":0,"CLASSIFICATION_TYPE":"U","NORAD_CAT_ID":39159,"ELEMENT_SET_NO":999,"REV_AT_EPOCH":67380,"BSTAR":5.6733e-5,"MEAN_MOTION_DOT":8.8e-7,"MEAN_MOTION_DDOT":0},{"OBJECT_NAME":"APRIZESAT 7","OBJECT_ID":"2013-066A","EPOCH":"2026-04-26T19:57:46.077984","MEAN_MOTION":14.91436159,"ECCENTRICITY":0.0036582,"INCLINATION":97.7668,"RA_OF_ASC_NODE":70.8067,"ARG_OF_PERICENTER":23.9186,"MEAN_ANOMALY":336.3722,"EPHEMERIS_TYPE":0,"CLASSIFICATION_TYPE":"U","NORAD_CAT_ID":39416,"ELEMENT_SET_NO":999,"REV_AT_EPOCH":67357,"BSTAR":0.00017559,"MEAN_MOTION_DOT":1.719e-5,"MEAN_MOTION_DDOT":0},{"OBJECT_NAME":"APRIZESAT 8","OBJECT_ID":"2013-066K","EPOCH":"2026-04-26T19:39:44.602272","MEAN_MOTION":14.87537584,"ECCENTRICITY":0.0047529,"INCLINATION":97.8184,"RA_OF_ASC_NODE":65.0207,"ARG_OF_PERICENTER":94.7774,"MEAN_ANOMALY":265.8872,"EPHEMERIS_TYPE":0,"CLASSIFICATION_TYPE":"U","NORAD_CAT_ID":39425,"ELEMENT_SET_NO":999,"REV_AT_EPOCH":67203,"BSTAR":0.00012762,"MEAN_MOTION_DOT":1.125e-5,"MEAN_MOTION_DDOT":0},{"OBJECT_NAME":"BUGSAT-1 (TITA)","OBJECT_ID":"2014-033E","EPOCH":"2026-04-26T19:02:32.263872","MEAN_MOTION":15.15061666,"ECCENTRICITY":0.0028096,"INCLINATION":98.0399,"RA_OF_ASC_NODE":206.3644,"ARG_OF_PERICENTER":359.0191,"MEAN_ANOMALY":1.0979,"EPHEMERIS_TYPE":0,"CLASSIFICATION_TYPE":"U","NORAD_CAT_ID":40014,"ELEMENT_SET_NO":999,"REV_AT_EPOCH":64805,"BSTAR":0.00037338,"MEAN_MOTION_DOT":6.978e-5,"MEAN_MOTION_DDOT":0},{"OBJECT_NAME":"SAUDISAT 4","OBJECT_ID":"2014-033G","EPOCH":"2026-04-26T20:29:46.116672","MEAN_MOTION":14.79466224,"ECCENTRICITY":0.004362,"INCLINATION":97.7511,"RA_OF_ASC_NODE":264.7863,"ARG_OF_PERICENTER":239.4826,"MEAN_ANOMALY":120.2077,"EPHEMERIS_TYPE":0,"CLASSIFICATION_TYPE":"U","NORAD_CAT_ID":40016,"ELEMENT_SET_NO":999,"REV_AT_EPOCH":63848,"BSTAR":0.00010561,"MEAN_MOTION_DOT":7.49e-6,"MEAN_MOTION_DDOT":0},{"OBJECT_NAME":"APRIZESAT 9","OBJECT_ID":"2014-033J","EPOCH":"2026-04-26T19:49:30.307008","MEAN_MOTION":14.74155369,"ECCENTRICITY":0.0066285,"INCLINATION":97.898,"RA_OF_ASC_NODE":251.303,"ARG_OF_PERICENTER":6.6784,"MEAN_ANOMALY":353.5292,"EPHEMERIS_TYPE":0,"CLASSIFICATION_TYPE":"U","NORAD_CAT_ID":40018,"ELEMENT_SET_NO":999,"REV_AT_EPOCH":63599,"BSTAR":8.5059e-5,"MEAN_MOTION_DOT":5.28e-6,"MEAN_MOTION_DDOT":0},{"OBJECT_NAME":"APRIZESAT 10","OBJECT_ID":"2014-033K","EPOCH":"2026-04-26T20:00:15.213024","MEAN_MOTION":14.7083466,"ECCENTRICITY":0.0080187,"INCLINATION":97.957,"RA_OF_ASC_NODE":244.9628,"ARG_OF_PERICENTER":78.0662,"MEAN_ANOMALY":282.952,"EPHEMERIS_TYPE":0,"CLASSIFICATION_TYPE":"U","NORAD_CAT_ID":40019,"ELEMENT_SET_NO":999,"REV_AT_EPOCH":63470,"BSTAR":0.00010082,"MEAN_MOTION_DOT":5.96e-6,"MEAN_MOTION_DDOT":0},{"OBJECT_NAME":"TECHDEMOSAT-1 (TDS-1)","OBJECT_ID":"2014-037H","EPOCH":"2026-04-26T20:00:37.378080","MEAN_MOTION":15.12465884,"ECCENTRICITY":0.0008211,"INCLINATION":98.3811,"RA_OF_ASC_NODE":103.9971,"ARG_OF_PERICENTER":84.4101,"MEAN_ANOMALY":275.8064,"EPHEMERIS_TYPE":0,"CLASSIFICATION_TYPE":"U","NORAD_CAT_ID":40076,"ELEMENT_SET_NO":999,"REV_AT_EPOCH":64046,"BSTAR":0.0005865,"MEAN_MOTION_DOT":0.0001014,"MEAN_MOTION_DDOT":0},{"OBJECT_NAME":"TECHNOSAT","OBJECT_ID":"2017-042E","EPOCH":"2026-04-26T17:09:04.690368","MEAN_MOTION":15.04638314,"ECCENTRICITY":0.0016356,"INCLINATION":97.4231,"RA_OF_ASC_NODE":276.3599,"ARG_OF_PERICENTER":269.307,"MEAN_ANOMALY":90.6282,"EPHEMERIS_TYPE":0,"CLASSIFICATION_TYPE":"U","NORAD_CAT_ID":42829,"ELEMENT_SET_NO":999,"REV_AT_EPOCH":47896,"BSTAR":0.00030784,"MEAN_MOTION_DOT":4.279e-5,"MEAN_MOTION_DDOT":0}]
