PROBA-1                 
1 26958U 01049B   26116.82391823  .00002795  00000+0  18387-3 0  9998
2 26958  97.9623 123.5671 0053901 297.4289  62.1461 15.07299686335882
CUTE-1 (CO-55)          
1 27844U 03031E   26116.75556575  .00000331  00000+0  16208-3 0  9999
2 27844  98.6757 125.9591 0009078 342.2770  17.8091 14.24302739184352
CUBESAT XI-IV (CO-57)   
1 27848U 03031J   26116.50745738  .00000273  00000+0  13914-3 0  9993
2 27848  98.6789 125.4683 0009403   1.8754 358.2459 14.23592208184025
APRIZESAT 4             
1 35684U 09041D   26116.73788301  .00000957  00000+0  12055-3 0  9999
2 35684  98.1423 191.0335 0044466 127.5357 232.9910 14.83799987903734
APRIZESAT 3             
1 35686U 09041F   26116.66868249  .00001412  00000+0  12708-3 0  9995
2 35686  98.1994 267.4506 0060924 236.6528 122.8851 14.96060223908673
PROBA-2                 
1 36037U 09059B   26116.79599120  .00000226  00000+0  63124-4 0  9999
2 36037  98.2451 300.8620 0014564  80.7768 279.5076 14.54839891874057
APRIZESAT 5             
1 37792U 11044E   26116.79534146  .00000956  00000+0  12806-3 0  9992
2 37792  98.2436  48.3909 0052531 166.7816 193.4786 14.80971114791186
APRIZESAT 6             
1 37793U 11044F   26116.72230458  .00000743  00000+0  11237-3 0  9996
2 37793  98.2390  26.1666 0041852 250.1475 163.7810 14.76844907789553
PROBA-V                 
1 39159U 13021A   26116.81107535  .00000088  00000+0  56733-4 0  9993
2 39159  98.3561  97.9631 0002995 289.9467  70.1390 14.23585717673803
APRIZESAT 7             
1 39416U 13066A   26116.83178331  .00001719  00000+0  17559-3 0  9996
2 39416  97.7668  70.8067 0036582  23.9186 336.3722 14.91436159673576
APRIZESAT 8             
1 39425U 13066K   26116.81926623  .00001125  00000+0  12762-3 0  9991
2 39425  97.8184  65.0207 0047529  94.7774 265.8872 14.87537584672035
BUGSAT-1 (TITA)         
1 40014U 14033E   26116.79342898  .00006978  00000+0  37338-3 0  9992
2 40014  98.0399 206.3644 0028096 359.0191   1.0979 15.15061666648053
SAUDISAT 4              
1 40016U 14033G   26116.85400598  .00000749  00000+0  10561-3 0  9992
2 40016  97.7511 264.7863 0043620 239.4826 120.2077 14.79466224638481
APRIZESAT 9             
1 40018U 14033J   26116.82604522  .00000528  00000+0  85059-4 0  9994
2 40018  97.8980 251.3030 0066285   6.6784 353.5292 14.74155369635994
APRIZESAT 10            
1 40019U 14033K   26116.83350941  .00000596  00000+0  10082-3 0  9997
2 40019  97.9570 244.9628 0080187  78.0662 282.9520 14.70834660634708
TECHDEMOSAT-1 (TDS-1)   
1 40076U 14037H   26116.83376595  .00010140  00000+0  58650-3 0  9996
2 40076  98.3811 103.9971 0008211  84.4101 275.8064 15.12465884640465
TECHNOSAT               
1 42829U 17042E   26116.71463762  .00004279  00000+0  30784-3 0  9997
2 42829  97.4231 276.3599 0016356 269.3070  90.6282 15.04638314478968
